[{"OBJECT_NAME":"NOAA 1","OBJECT_ID":"1970-106A","EPOCH":"2026-03-06T01:13:30.321696","MEAN_MOTION":12.54049236,"ECCENTRICITY":0.00317189,"INCLINATION":101.352,"RA_OF_ASC_NODE":104.2345,"ARG_OF_PERICENTER":188.0071,"MEAN_ANOMALY":200.9606,"EPHEMERIS_TYPE":0,"CLASSIFICATION_TYPE":"U","NORAD_CAT_ID":4793,"ELEMENT_SET_NO":999,"REV_AT_EPOCH":52776,"BSTAR":5.3259861e-5,"MEAN_MOTION_DOT":-3.4e-7,"MEAN_MOTION_DDOT":0},{"OBJECT_NAME":"NOAA 2 (ITOS-D)","OBJECT_ID":"1972-082A","EPOCH":"2026-03-06T07:01:17.804352","MEAN_MOTION":12.53211722,"ECCENTRICITY":0.00039993,"INCLINATION":102.0167,"RA_OF_ASC_NODE":82.7075,"ARG_OF_PERICENTER":11.7454,"MEAN_ANOMALY":359.4138,"EPHEMERIS_TYPE":0,"CLASSIFICATION_TYPE":"U","NORAD_CAT_ID":6235,"ELEMENT_SET_NO":999,"REV_AT_EPOCH":44206,"BSTAR":3.3398805e-5,"MEAN_MOTION_DOT":-4.1e-7,"MEAN_MOTION_DDOT":0},{"OBJECT_NAME":"NOAA 3","OBJECT_ID":"1973-086A","EPOCH":"2026-03-06T06:32:59.914752","MEAN_MOTION":12.40391692,"ECCENTRICITY":0.00061896,"INCLINATION":102.2908,"RA_OF_ASC_NODE":78.218,"ARG_OF_PERICENTER":315.3209,"MEAN_ANOMALY":56.0665,"EPHEMERIS_TYPE":0,"CLASSIFICATION_TYPE":"U","NORAD_CAT_ID":6920,"ELEMENT_SET_NO":999,"REV_AT_EPOCH":36914,"BSTAR":4.9708792e-5,"MEAN_MOTION_DOT":-4.0e-7,"MEAN_MOTION_DDOT":0},{"OBJECT_NAME":"NOAA 4","OBJECT_ID":"1974-089A","EPOCH":"2026-03-05T23:10:51.543840","MEAN_MOTION":12.53201583,"ECCENTRICITY":0.00091438,"INCLINATION":102.0073,"RA_OF_ASC_NODE":76.6571,"ARG_OF_PERICENTER":35.7967,"MEAN_ANOMALY":34.0353,"EPHEMERIS_TYPE":0,"CLASSIFICATION_TYPE":"U","NORAD_CAT_ID":7529,"ELEMENT_SET_NO":999,"REV_AT_EPOCH":34659,"BSTAR":-2.1847559e-5,"MEAN_MOTION_DOT":-5.0e-7,"MEAN_MOTION_DDOT":0},{"OBJECT_NAME":"NOAA 5","OBJECT_ID":"1976-077A","EPOCH":"2026-03-06T04:36:34.548192","MEAN_MOTION":12.37828286,"ECCENTRICITY":0.00097835,"INCLINATION":102.2956,"RA_OF_ASC_NODE":50.6805,"ARG_OF_PERICENTER":167.0171,"MEAN_ANOMALY":203.7108,"EPHEMERIS_TYPE":0,"CLASSIFICATION_TYPE":"U","NORAD_CAT_ID":9057,"ELEMENT_SET_NO":999,"REV_AT_EPOCH":24173,"BSTAR":8.0759447e-5,"MEAN_MOTION_DOT":-3.6e-7,"MEAN_MOTION_DDOT":0},{"OBJECT_NAME":"TIROS N","OBJECT_ID":"1978-096A","EPOCH":"2026-03-06T01:48:29.099520","MEAN_MOTION":14.19336484,"ECCENTRICITY":0.00105501,"INCLINATION":98.4638,"RA_OF_ASC_NODE":90.7555,"ARG_OF_PERICENTER":175.5448,"MEAN_ANOMALY":184.5824,"EPHEMERIS_TYPE":0,"CLASSIFICATION_TYPE":"U","NORAD_CAT_ID":11060,"ELEMENT_SET_NO":999,"REV_AT_EPOCH":66412,"BSTAR":0.00011309905,"MEAN_MOTION_DOT":1.96e-6,"MEAN_MOTION_DDOT":0},{"OBJECT_NAME":"NOAA 6","OBJECT_ID":"1979-057A","EPOCH":"2026-03-06T01:35:27.825792","MEAN_MOTION":14.35430268,"ECCENTRICITY":0.0009534,"INCLINATION":98.5755,"RA_OF_ASC_NODE":95.2418,"ARG_OF_PERICENTER":197.8699,"MEAN_ANOMALY":162.2153,"EPHEMERIS_TYPE":0,"CLASSIFICATION_TYPE":"U","NORAD_CAT_ID":11416,"ELEMENT_SET_NO":999,"REV_AT_EPOCH":43616,"BSTAR":0.00014538753,"MEAN_MOTION_DOT":3.74e-6,"MEAN_MOTION_DDOT":0},{"OBJECT_NAME":"NOAA 7","OBJECT_ID":"1981-059A","EPOCH":"2026-03-06T03:10:50.590272","MEAN_MOTION":14.17772375,"ECCENTRICITY":0.00111795,"INCLINATION":98.8066,"RA_OF_ASC_NODE":133.2136,"ARG_OF_PERICENTER":198.0928,"MEAN_ANOMALY":161.985,"EPHEMERIS_TYPE":0,"CLASSIFICATION_TYPE":"U","NORAD_CAT_ID":12553,"ELEMENT_SET_NO":999,"REV_AT_EPOCH":31014,"BSTAR":5.5983062e-5,"MEAN_MOTION_DOT":7.0e-7,"MEAN_MOTION_DDOT":0},{"OBJECT_NAME":"NOAA 8","OBJECT_ID":"1983-022A","EPOCH":"2026-03-06T01:19:36.367392","MEAN_MOTION":14.29765094,"ECCENTRICITY":0.00144652,"INCLINATION":98.7374,"RA_OF_ASC_NODE":77.8406,"ARG_OF_PERICENTER":196.3399,"MEAN_ANOMALY":163.7319,"EPHEMERIS_TYPE":0,"CLASSIFICATION_TYPE":"U","NORAD_CAT_ID":13923,"ELEMENT_SET_NO":999,"REV_AT_EPOCH":23633,"BSTAR":8.6135174e-5,"MEAN_MOTION_DOT":1.76e-6,"MEAN_MOTION_DDOT":0},{"OBJECT_NAME":"NOAA 9","OBJECT_ID":"1984-123A","EPOCH":"2026-03-06T07:36:58.398048","MEAN_MOTION":14.17037665,"ECCENTRICITY":0.00136725,"INCLINATION":99.1099,"RA_OF_ASC_NODE":89.5222,"ARG_OF_PERICENTER":281.9733,"MEAN_ANOMALY":88.542,"EPHEMERIS_TYPE":0,"CLASSIFICATION_TYPE":"U","NORAD_CAT_ID":15427,"ELEMENT_SET_NO":999,"REV_AT_EPOCH":12885,"BSTAR":0.00010709139,"MEAN_MOTION_DOT":1.69e-6,"MEAN_MOTION_DDOT":0},{"OBJECT_NAME":"NOAA 10","OBJECT_ID":"1986-073A","EPOCH":"2026-03-05T21:39:35.333856","MEAN_MOTION":14.29142314,"ECCENTRICITY":0.00111446,"INCLINATION":98.6997,"RA_OF_ASC_NODE":58.3028,"ARG_OF_PERICENTER":301.3023,"MEAN_ANOMALY":116.7484,"EPHEMERIS_TYPE":0,"CLASSIFICATION_TYPE":"U","NORAD_CAT_ID":16969,"ELEMENT_SET_NO":999,"REV_AT_EPOCH":5466,"BSTAR":9.5449893e-5,"MEAN_MOTION_DOT":1.98e-6,"MEAN_MOTION_DDOT":0},{"OBJECT_NAME":"NOAA 11","OBJECT_ID":"1988-089A","EPOCH":"2026-03-06T06:04:20.817408","MEAN_MOTION":14.15819827,"ECCENTRICITY":0.00101309,"INCLINATION":98.6091,"RA_OF_ASC_NODE":14.4094,"ARG_OF_PERICENTER":230.2842,"MEAN_ANOMALY":129.744,"EPHEMERIS_TYPE":0,"CLASSIFICATION_TYPE":"U","NORAD_CAT_ID":19531,"ELEMENT_SET_NO":999,"REV_AT_EPOCH":93291,"BSTAR":7.6903709e-5,"MEAN_MOTION_DOT":1.09e-6,"MEAN_MOTION_DDOT":0},{"OBJECT_NAME":"NOAA 12","OBJECT_ID":"1991-032A","EPOCH":"2026-03-06T05:55:33.209760","MEAN_MOTION":14.26716271,"ECCENTRICITY":0.001311,"INCLINATION":98.6151,"RA_OF_ASC_NODE":55.3018,"ARG_OF_PERICENTER":333.725,"MEAN_ANOMALY":26.3264,"EPHEMERIS_TYPE":0,"CLASSIFICATION_TYPE":"U","NORAD_CAT_ID":21263,"ELEMENT_SET_NO":999,"REV_AT_EPOCH":81028,"BSTAR":9.1889977e-5,"MEAN_MOTION_DOT":1.79e-6,"MEAN_MOTION_DDOT":0},{"OBJECT_NAME":"NOAA 13","OBJECT_ID":"1993-050A","EPOCH":"2026-03-06T06:03:20.409984","MEAN_MOTION":14.13635022,"ECCENTRICITY":0.00104976,"INCLINATION":98.693,"RA_OF_ASC_NODE":13.0955,"ARG_OF_PERICENTER":65.9196,"MEAN_ANOMALY":294.3075,"EPHEMERIS_TYPE":0,"CLASSIFICATION_TYPE":"U","NORAD_CAT_ID":22739,"ELEMENT_SET_NO":999,"REV_AT_EPOCH":67883,"BSTAR":0.0001157405,"MEAN_MOTION_DOT":1.76e-6,"MEAN_MOTION_DDOT":0},{"OBJECT_NAME":"NOAA 14","OBJECT_ID":"1994-089A","EPOCH":"2026-03-06T05:11:33.046944","MEAN_MOTION":14.146543,"ECCENTRICITY":0.00099747,"INCLINATION":98.5017,"RA_OF_ASC_NODE":39.5963,"ARG_OF_PERICENTER":26.0335,"MEAN_ANOMALY":334.1339,"EPHEMERIS_TYPE":0,"CLASSIFICATION_TYPE":"U","NORAD_CAT_ID":23455,"ELEMENT_SET_NO":999,"REV_AT_EPOCH":60864,"BSTAR":6.7033545e-5,"MEAN_MOTION_DOT":8.8e-7,"MEAN_MOTION_DDOT":0},{"OBJECT_NAME":"NOAA 15","OBJECT_ID":"1998-030A","EPOCH":"2026-03-06T06:19:02.727264","MEAN_MOTION":14.2711096,"ECCENTRICITY":0.00091222,"INCLINATION":98.5166,"RA_OF_ASC_NODE":88.634,"ARG_OF_PERICENTER":291.468,"MEAN_ANOMALY":68.5528,"EPHEMERIS_TYPE":0,"CLASSIFICATION_TYPE":"U","NORAD_CAT_ID":25338,"ELEMENT_SET_NO":999,"REV_AT_EPOCH":44661,"BSTAR":9.8521966e-5,"MEAN_MOTION_DOT":1.97e-6,"MEAN_MOTION_DDOT":0},{"OBJECT_NAME":"NOAA 16","OBJECT_ID":"2000-055A","EPOCH":"2026-03-06T06:31:45.222816","MEAN_MOTION":14.13897081,"ECCENTRICITY":0.00094579,"INCLINATION":98.4706,"RA_OF_ASC_NODE":84.9528,"ARG_OF_PERICENTER":232.924,"MEAN_ANOMALY":127.1069,"EPHEMERIS_TYPE":0,"CLASSIFICATION_TYPE":"U","NORAD_CAT_ID":26536,"ELEMENT_SET_NO":999,"REV_AT_EPOCH":60918,"BSTAR":9.6156446e-5,"MEAN_MOTION_DOT":1.41e-6,"MEAN_MOTION_DDOT":0}]
